[{"OBJECT_NAME":"OBJECT C","OBJECT_ID":"2023-091C","EPOCH":"2026-03-09T22:19:51.473568","MEAN_MOTION":15.24718365,"ECCENTRICITY":0.0013257,"INCLINATION":97.5143,"RA_OF_ASC_NODE":130.8747,"ARG_OF_PERICENTER":96.9232,"MEAN_ANOMALY":263.3514,"EPHEMERIS_TYPE":0,"CLASSIFICATION_TYPE":"U","NORAD_CAT_ID":57168,"ELEMENT_SET_NO":999,"REV_AT_EPOCH":14912,"BSTAR":0.00051490472,"MEAN_MOTION_DOT":0.00012709,"MEAN_MOTION_DDOT":0},{"OBJECT_NAME":"STARLINK-30243","OBJECT_ID":"2023-122S","EPOCH":"2026-03-09T22:00:01.999584","MEAN_MOTION":15.26710307,"ECCENTRICITY":0.00017112,"INCLINATION":43.0057,"RA_OF_ASC_NODE":91.3153,"ARG_OF_PERICENTER":274.5466,"MEAN_ANOMALY":332.2487,"EPHEMERIS_TYPE":0,"CLASSIFICATION_TYPE":"U","NORAD_CAT_ID":57648,"ELEMENT_SET_NO":999,"REV_AT_EPOCH":578,"BSTAR":0.0013693891,"MEAN_MOTION_DOT":0.00036622,"MEAN_MOTION_DDOT":0}]
